[{"OBJECT_NAME":"APRIZESAT 2","OBJECT_ID":"2004-025A","EPOCH":"2026-03-07T00:01:26.976288","MEAN_MOTION":14.37985836,"ECCENTRICITY":0.0105309,"INCLINATION":98.0906,"RA_OF_ASC_NODE":237.8166,"ARG_OF_PERICENTER":197.9593,"MEAN_ANOMALY":161.7863,"EPHEMERIS_TYPE":0,"CLASSIFICATION_TYPE":"U","NORAD_CAT_ID":28366,"ELEMENT_SET_NO":999,"REV_AT_EPOCH":13695,"BSTAR":0.00014368,"MEAN_MOTION_DOT":4.21e-6,"MEAN_MOTION_DDOT":0},{"OBJECT_NAME":"SAUDICOMSAT 1","OBJECT_ID":"2004-025D","EPOCH":"2026-03-06T23:50:57.422688","MEAN_MOTION":14.5538487,"ECCENTRICITY":0.0031739,"INCLINATION":98.5809,"RA_OF_ASC_NODE":73.3557,"ARG_OF_PERICENTER":338.6452,"MEAN_ANOMALY":21.3418,"EPHEMERIS_TYPE":0,"CLASSIFICATION_TYPE":"U","NORAD_CAT_ID":28369,"ELEMENT_SET_NO":999,"REV_AT_EPOCH":14926,"BSTAR":0.00015453,"MEAN_MOTION_DOT":6.25e-6,"MEAN_MOTION_DDOT":0},{"OBJECT_NAME":"SAUDICOMSAT 2","OBJECT_ID":"2004-025E","EPOCH":"2026-03-06T23:50:10.351104","MEAN_MOTION":14.49906413,"ECCENTRICITY":0.0055066,"INCLINATION":98.6686,"RA_OF_ASC_NODE":75.3347,"ARG_OF_PERICENTER":208.1094,"MEAN_ANOMALY":151.7123,"EPHEMERIS_TYPE":0,"CLASSIFICATION_TYPE":"U","NORAD_CAT_ID":28370,"ELEMENT_SET_NO":999,"REV_AT_EPOCH":14529,"BSTAR":0.00011045,"MEAN_MOTION_DOT":3.85e-6,"MEAN_MOTION_DDOT":0},{"OBJECT_NAME":"APRIZESAT 1","OBJECT_ID":"2004-025G","EPOCH":"2026-03-07T03:38:14.022816","MEAN_MOTION":14.51712232,"ECCENTRICITY":0.0045813,"INCLINATION":98.6345,"RA_OF_ASC_NODE":74.0834,"ARG_OF_PERICENTER":105.1035,"MEAN_ANOMALY":255.5235,"EPHEMERIS_TYPE":0,"CLASSIFICATION_TYPE":"U","NORAD_CAT_ID":28372,"ELEMENT_SET_NO":999,"REV_AT_EPOCH":14710,"BSTAR":0.00010218,"MEAN_MOTION_DOT":3.67e-6,"MEAN_MOTION_DDOT":0},{"OBJECT_NAME":"NANOSAT-1","OBJECT_ID":"2004-049B","EPOCH":"2026-03-06T22:45:50.012928","MEAN_MOTION":14.79909551,"ECCENTRICITY":0.0002856,"INCLINATION":98.2094,"RA_OF_ASC_NODE":200.2244,"ARG_OF_PERICENTER":257.0239,"MEAN_ANOMALY":103.0653,"EPHEMERIS_TYPE":0,"CLASSIFICATION_TYPE":"U","NORAD_CAT_ID":28493,"ELEMENT_SET_NO":999,"REV_AT_EPOCH":14032,"BSTAR":0.000244,"MEAN_MOTION_DOT":1.787e-5,"MEAN_MOTION_DDOT":0},{"OBJECT_NAME":"SAUDICOMSAT 7","OBJECT_ID":"2007-012C","EPOCH":"2026-03-06T20:56:27.591648","MEAN_MOTION":14.65964831,"ECCENTRICITY":0.0056294,"INCLINATION":98.3677,"RA_OF_ASC_NODE":37.9799,"ARG_OF_PERICENTER":155.9115,"MEAN_ANOMALY":204.474,"EPHEMERIS_TYPE":0,"CLASSIFICATION_TYPE":"U","NORAD_CAT_ID":31119,"ELEMENT_SET_NO":999,"REV_AT_EPOCH":744,"BSTAR":0.00016061,"MEAN_MOTION_DOT":8.47e-6,"MEAN_MOTION_DDOT":0},{"OBJECT_NAME":"SAUDICOMSAT 6","OBJECT_ID":"2007-012E","EPOCH":"2026-03-06T22:39:10.716192","MEAN_MOTION":14.62425354,"ECCENTRICITY":0.0070688,"INCLINATION":98.3986,"RA_OF_ASC_NODE":31.6358,"ARG_OF_PERICENTER":285.5137,"MEAN_ANOMALY":73.8267,"EPHEMERIS_TYPE":0,"CLASSIFICATION_TYPE":"U","NORAD_CAT_ID":31121,"ELEMENT_SET_NO":999,"REV_AT_EPOCH":524,"BSTAR":0.00020253,"MEAN_MOTION_DOT":1.008e-5,"MEAN_MOTION_DDOT":0},{"OBJECT_NAME":"SAUDICOMSAT 5","OBJECT_ID":"2007-012H","EPOCH":"2026-03-07T04:37:21.912672","MEAN_MOTION":14.67995683,"ECCENTRICITY":0.0048849,"INCLINATION":98.339,"RA_OF_ASC_NODE":39.0728,"ARG_OF_PERICENTER":86.5917,"MEAN_ANOMALY":274.0873,"EPHEMERIS_TYPE":0,"CLASSIFICATION_TYPE":"U","NORAD_CAT_ID":31124,"ELEMENT_SET_NO":999,"REV_AT_EPOCH":863,"BSTAR":0.00020239,"MEAN_MOTION_DOT":1.127e-5,"MEAN_MOTION_DDOT":0},{"OBJECT_NAME":"SAUDICOMSAT 3","OBJECT_ID":"2007-012J","EPOCH":"2026-03-06T20:27:20.803104","MEAN_MOTION":14.70516673,"ECCENTRICITY":0.0039734,"INCLINATION":98.3046,"RA_OF_ASC_NODE":39.2863,"ARG_OF_PERICENTER":17.4828,"MEAN_ANOMALY":342.7735,"EPHEMERIS_TYPE":0,"CLASSIFICATION_TYPE":"U","NORAD_CAT_ID":31125,"ELEMENT_SET_NO":999,"REV_AT_EPOCH":978,"BSTAR":0.00030355,"MEAN_MOTION_DOT":1.81e-5,"MEAN_MOTION_DDOT":0},{"OBJECT_NAME":"SAUDICOMSAT 4","OBJECT_ID":"2007-012L","EPOCH":"2026-03-07T03:28:00.964704","MEAN_MOTION":14.64373453,"ECCENTRICITY":0.0062715,"INCLINATION":98.388,"RA_OF_ASC_NODE":36.708,"ARG_OF_PERICENTER":216.331,"MEAN_ANOMALY":143.3627,"EPHEMERIS_TYPE":0,"CLASSIFICATION_TYPE":"U","NORAD_CAT_ID":31127,"ELEMENT_SET_NO":999,"REV_AT_EPOCH":635,"BSTAR":0.0001568,"MEAN_MOTION_DOT":7.99e-6,"MEAN_MOTION_DDOT":0},{"OBJECT_NAME":"APRIZESAT 4","OBJECT_ID":"2009-041D","EPOCH":"2026-03-07T03:49:47.537472","MEAN_MOTION":14.83702098,"ECCENTRICITY":0.0042193,"INCLINATION":98.149,"RA_OF_ASC_NODE":139.43,"ARG_OF_PERICENTER":293.1269,"MEAN_ANOMALY":66.55,"EPHEMERIS_TYPE":0,"CLASSIFICATION_TYPE":"U","NORAD_CAT_ID":35684,"ELEMENT_SET_NO":999,"REV_AT_EPOCH":89623,"BSTAR":0.0001272,"MEAN_MOTION_DOT":1.008e-5,"MEAN_MOTION_DDOT":0},{"OBJECT_NAME":"APRIZESAT 3","OBJECT_ID":"2009-041F","EPOCH":"2026-03-06T23:14:57.959232","MEAN_MOTION":14.95889217,"ECCENTRICITY":0.0063133,"INCLINATION":98.1899,"RA_OF_ASC_NODE":214.4076,"ARG_OF_PERICENTER":45.6164,"MEAN_ANOMALY":315.0201,"EPHEMERIS_TYPE":0,"CLASSIFICATION_TYPE":"U","NORAD_CAT_ID":35686,"ELEMENT_SET_NO":999,"REV_AT_EPOCH":90109,"BSTAR":0.00020823,"MEAN_MOTION_DOT":2.356e-5,"MEAN_MOTION_DDOT":0},{"OBJECT_NAME":"S-NET D","OBJECT_ID":"2018-014G","EPOCH":"2026-03-07T03:58:32.039040","MEAN_MOTION":15.15583928,"ECCENTRICITY":0.0009109,"INCLINATION":97.5435,"RA_OF_ASC_NODE":331.6307,"ARG_OF_PERICENTER":23.3376,"MEAN_ANOMALY":336.8268,"EPHEMERIS_TYPE":0,"CLASSIFICATION_TYPE":"U","NORAD_CAT_ID":43186,"ELEMENT_SET_NO":999,"REV_AT_EPOCH":44330,"BSTAR":0.00036697,"MEAN_MOTION_DOT":6.907e-5,"MEAN_MOTION_DDOT":0},{"OBJECT_NAME":"S-NET B","OBJECT_ID":"2018-014H","EPOCH":"2026-03-07T01:02:04.676352","MEAN_MOTION":15.15555343,"ECCENTRICITY":0.000964,"INCLINATION":97.5444,"RA_OF_ASC_NODE":331.4923,"ARG_OF_PERICENTER":18.8353,"MEAN_ANOMALY":341.3234,"EPHEMERIS_TYPE":0,"CLASSIFICATION_TYPE":"U","NORAD_CAT_ID":43187,"ELEMENT_SET_NO":999,"REV_AT_EPOCH":44328,"BSTAR":0.00034645,"MEAN_MOTION_DOT":6.512e-5,"MEAN_MOTION_DDOT":0},{"OBJECT_NAME":"S-NET A","OBJECT_ID":"2018-014J","EPOCH":"2026-03-06T07:21:39.575520","MEAN_MOTION":15.15578985,"ECCENTRICITY":0.0009624,"INCLINATION":97.5456,"RA_OF_ASC_NODE":330.9512,"ARG_OF_PERICENTER":21.8834,"MEAN_ANOMALY":338.2807,"EPHEMERIS_TYPE":0,"CLASSIFICATION_TYPE":"U","NORAD_CAT_ID":43188,"ELEMENT_SET_NO":999,"REV_AT_EPOCH":44317,"BSTAR":0.00036192527,"MEAN_MOTION_DOT":6.811e-5,"MEAN_MOTION_DDOT":0},{"OBJECT_NAME":"S-NET C","OBJECT_ID":"2018-014K","EPOCH":"2026-03-06T12:26:16.358496","MEAN_MOTION":15.15542461,"ECCENTRICITY":0.00107568,"INCLINATION":97.5472,"RA_OF_ASC_NODE":331.2201,"ARG_OF_PERICENTER":13.0929,"MEAN_ANOMALY":347.0581,"EPHEMERIS_TYPE":0,"CLASSIFICATION_TYPE":"U","NORAD_CAT_ID":43189,"ELEMENT_SET_NO":999,"REV_AT_EPOCH":44175,"BSTAR":0.00040972374,"MEAN_MOTION_DOT":7.714e-5,"MEAN_MOTION_DDOT":0},{"OBJECT_NAME":"SALSAT","OBJECT_ID":"2020-068K","EPOCH":"2026-03-06T22:08:58.267104","MEAN_MOTION":15.28115498,"ECCENTRICITY":0.0008446,"INCLINATION":97.8857,"RA_OF_ASC_NODE":62.8923,"ARG_OF_PERICENTER":308.5318,"MEAN_ANOMALY":51.5163,"EPHEMERIS_TYPE":0,"CLASSIFICATION_TYPE":"U","NORAD_CAT_ID":46495,"ELEMENT_SET_NO":999,"REV_AT_EPOCH":29973,"BSTAR":0.00041467,"MEAN_MOTION_DOT":0.00011302,"MEAN_MOTION_DDOT":0}]
