APRIZESAT 2             
1 28366U 04025A   26066.00100667  .00000421  00000+0  14368-3 0  9997
2 28366  98.0906 237.8166 0105309 197.9593 161.7863 14.37985836136953
SAUDICOMSAT 1           
1 28369U 04025D   26065.99372017  .00000625  00000+0  15453-3 0  9999
2 28369  98.5809  73.3557 0031739 338.6452  21.3418 14.55384870149269
SAUDICOMSAT 2           
1 28370U 04025E   26065.99317536  .00000385  00000+0  11045-3 0  9992
2 28370  98.6686  75.3347 0055066 208.1094 151.7123 14.49906413145292
APRIZESAT 1             
1 28372U 04025G   26066.15155119  .00000367  00000+0  10218-3 0  9991
2 28372  98.6345  74.0834 0045813 105.1035 255.5235 14.51712232147109
NANOSAT-1               
1 28493U 04049B   26065.94849552  .00001787  00000+0  24400-3 0  9993
2 28493  98.2094 200.2244 0002856 257.0239 103.0653 14.79909551140321
SAUDICOMSAT 7           
1 31119U 07012C   26065.87254157  .00000847  00000+0  16061-3 0  9998
2 31119  98.3677  37.9799 0056294 155.9115 204.4740 14.65964831  7447
SAUDICOMSAT 6           
1 31121U 07012E   26065.94387403  .00001008  00000+0  20253-3 0  9998
2 31121  98.3986  31.6358 0070688 285.5137  73.8267 14.62425354  5249
SAUDICOMSAT 5           
1 31124U 07012H   26066.19261473  .00001127  00000+0  20239-3 0  9993
2 31124  98.3390  39.0728 0048849  86.5917 274.0873 14.67995683  8639
SAUDICOMSAT 3           
1 31125U 07012J   26065.85232411  .00001810  00000+0  30355-3 0  9995
2 31125  98.3046  39.2863 0039734  17.4828 342.7735 14.70516673  9786
SAUDICOMSAT 4           
1 31127U 07012L   26066.14445561  .00000799  00000+0  15680-3 0  9991
2 31127  98.3880  36.7080 0062715 216.3310 143.3627 14.64373453  6353
APRIZESAT 4             
1 35684U 09041D   26066.15957798  .00001008  00000+0  12720-3 0  9994
2 35684  98.1490 139.4300 0042193 293.1269  66.5500 14.83702098896232
APRIZESAT 3             
1 35686U 09041F   26065.96872638  .00002356  00000+0  20823-3 0  9993
2 35686  98.1899 214.4076 0063133  45.6164 315.0201 14.95889217901095
S-NET D                 
1 43186U 18014G   26066.16564860  .00006907  00000+0  36697-3 0  9997
2 43186  97.5435 331.6307 0009109  23.3376 336.8268 15.15583928443300
S-NET B                 
1 43187U 18014H   26066.04310968  .00006512  00000+0  34645-3 0  9996
2 43187  97.5444 331.4923 0009640  18.8353 341.3234 15.15555343443288
S-NET A                 
1 43188U 18014J   26065.30670805  .00006811  00000+0  36193-3 0  9996
2 43188  97.5456 330.9512 0009624  21.8834 338.2807 15.15578985443176
S-NET C                 
1 43189U 18014K   26065.51824489  .00007714  00000+0  40972-3 0  9992
2 43189  97.5472 331.2201 0010756  13.0929 347.0581 15.15542461441759
SALSAT                  
1 46495U 20068K   26065.92289661  .00011302  00000+0  41467-3 0  9997
2 46495  97.8857  62.8923 0008446 308.5318  51.5163 15.28115498299739
